ONEWEB-0371             
1 49297U 21090U   26189.87346527  .00000067  00000+0  13481-3 0  9993
2 49297  87.9194 300.6484 0002087 102.5708 257.5659 13.19724641229310
ONEWEB-0372             
1 49298U 21090V   26189.75285017 -.00000040  00000+0 -12948-3 0  9997
2 49298  87.9215 270.1413 0001987 105.0168 255.1186 13.20773967232684
ONEWEB-0373             
1 49299U 21090W   26189.77825201  .00000048  00000+0  85407-4 0  9992
2 49299  87.9186 270.1398 0002084  96.8840 263.2530 13.20772897233873
ONEWEB-0374             
1 49300U 21090X   26189.81229570  .00000010  00000+0 -78001-5 0  9990
2 49300  87.8980 285.3885 0001671  88.8551 271.2770 13.14502318230400
ONEWEB-0375             
1 49301U 21090Y   26189.76647009  .00000056  00000+0  10678-3 0  9999
2 49301  87.9185 270.1340 0001810  84.1682 275.9658 13.20772833233379
ONEWEB-0376             
1 49302U 21090Z   26189.87188437 -.00000002  00000+0 -38548-4 0  9997
2 49302  87.9193 300.6487 0001996 106.8324 253.3028 13.19726403229310
ONEWEB-0377             
1 49303U 21090AA  26189.75314362 -.00000040  00000+0 -12993-3 0  9990
2 49303  87.9191 270.1388 0001994  94.6777 265.4584 13.20772953233368
ONEWEB-0378             
1 49304U 21090AB  26189.77335209  .00000025  00000+0  30018-4 0  9996
2 49304  87.9186 270.1386 0001936  98.4411 261.6942 13.20771733232634
ONEWEB-0379             
1 49305U 21090AC  26189.80754182  .00000127  00000+0  30749-3 0  9999
2 49305  87.8977 285.3998 0001874 102.1012 258.0328 13.14502024230409
ONEWEB-0380             
1 49306U 21090AD  26189.86873531  .00000065  00000+0  13031-3 0  9992
2 49306  87.9183 300.6535 0002005  95.2146 264.9216 13.19726532229288
ONEWEB-0381             
1 49307U 21090AE  26189.74962373 -.00000015  00000+0 -69573-4 0  9993
2 49307  87.9204 270.1421 0001832  91.1826 268.9517 13.20773046232674
ONEWEB-0382             
1 49308U 21090AF  26189.73617391  .00000054  00000+0  10112-3 0  9995
2 49308  87.9185 270.1412 0001793  96.1838 263.9499 13.20771810232667
ONEWEB-0383             
1 49309U 21090AG  26189.80119962  .00000226  00000+0  57628-3 0  9999
2 49309  87.8994 285.3909 0001652 120.9868 239.1424 13.14502369230437
ONEWEB-0384             
1 49310U 21090AH  26189.72413374  .00000010  00000+0 -77885-5 0  9997
2 49310  87.9195 270.1868 0001620  95.2368 264.8951 13.20813758232675
ONEWEB-0385             
1 49311U 21090AJ  26189.72941784 -.00000182  00000+0 -48062-3 0  9993
2 49311  87.9191 270.1474 0001935  95.3825 264.7529 13.20770302232647
ONEWEB-0386             
1 49312U 21090AK  26189.51899178  .00000080  00000+0  16494-3 0  9999
2 49312  87.9196 270.1810 0001838  94.6200 265.5143 13.20773715232639
