{"fetched_at":"2026-07-09T18:16:42.472Z","source":"https://celestrak.org/NORAD/elements/gp.php?GROUP=oneweb&FORMAT=JSON","constellation":"oneweb","records":[{"OBJECT_NAME":"ONEWEB-0371","OBJECT_ID":"2021-090U","EPOCH":"2026-07-08T20:57:47.399328","CLASSIFICATION_TYPE":"U","MEAN_MOTION":13.19724641,"ECCENTRICITY":0.00020872,"INCLINATION":87.9194,"RA_OF_ASC_NODE":300.6484,"ARG_OF_PERICENTER":102.5708,"MEAN_ANOMALY":257.5659,"EPHEMERIS_TYPE":0,"NORAD_CAT_ID":49297,"ELEMENT_SET_NO":999,"REV_AT_EPOCH":22931,"BSTAR":0.00013480886,"MEAN_MOTION_DOT":6.7e-7,"MEAN_MOTION_DDOT":0},{"OBJECT_NAME":"ONEWEB-0372","OBJECT_ID":"2021-090V","EPOCH":"2026-07-08T18:04:06.254688","CLASSIFICATION_TYPE":"U","MEAN_MOTION":13.20773967,"ECCENTRICITY":0.00019879,"INCLINATION":87.9215,"RA_OF_ASC_NODE":270.1413,"ARG_OF_PERICENTER":105.0168,"MEAN_ANOMALY":255.1186,"EPHEMERIS_TYPE":0,"NORAD_CAT_ID":49298,"ELEMENT_SET_NO":999,"REV_AT_EPOCH":23268,"BSTAR":-0.00012947817,"MEAN_MOTION_DOT":-4e-7,"MEAN_MOTION_DDOT":0},{"OBJECT_NAME":"ONEWEB-0373","OBJECT_ID":"2021-090W","EPOCH":"2026-07-08T18:40:40.973664","CLASSIFICATION_TYPE":"U","MEAN_MOTION":13.20772897,"ECCENTRICITY":0.00020849,"INCLINATION":87.9186,"RA_OF_ASC_NODE":270.1398,"ARG_OF_PERICENTER":96.884,"MEAN_ANOMALY":263.253,"EPHEMERIS_TYPE":0,"NORAD_CAT_ID":49299,"ELEMENT_SET_NO":999,"REV_AT_EPOCH":23387,"BSTAR":0.000085406941,"MEAN_MOTION_DOT":4.8e-7,"MEAN_MOTION_DDOT":0},{"OBJECT_NAME":"ONEWEB-0374","OBJECT_ID":"2021-090X","EPOCH":"2026-07-08T19:29:42.348480","CLASSIFICATION_TYPE":"U","MEAN_MOTION":13.14502318,"ECCENTRICITY":0.00016711,"INCLINATION":87.898,"RA_OF_ASC_NODE":285.3885,"ARG_OF_PERICENTER":88.8551,"MEAN_ANOMALY":271.277,"EPHEMERIS_TYPE":0,"NORAD_CAT_ID":49300,"ELEMENT_SET_NO":999,"REV_AT_EPOCH":23040,"BSTAR":-0.000007800086,"MEAN_MOTION_DOT":1e-7,"MEAN_MOTION_DDOT":0},{"OBJECT_NAME":"ONEWEB-0375","OBJECT_ID":"2021-090Y","EPOCH":"2026-07-08T18:23:43.015776","CLASSIFICATION_TYPE":"U","MEAN_MOTION":13.20772833,"ECCENTRICITY":0.00018109,"INCLINATION":87.9185,"RA_OF_ASC_NODE":270.134,"ARG_OF_PERICENTER":84.1682,"MEAN_ANOMALY":275.9658,"EPHEMERIS_TYPE":0,"NORAD_CAT_ID":49301,"ELEMENT_SET_NO":999,"REV_AT_EPOCH":23337,"BSTAR":0.00010678037,"MEAN_MOTION_DOT":5.6e-7,"MEAN_MOTION_DDOT":0},{"OBJECT_NAME":"ONEWEB-0376","OBJECT_ID":"2021-090Z","EPOCH":"2026-07-08T20:55:30.809568","CLASSIFICATION_TYPE":"U","MEAN_MOTION":13.19726403,"ECCENTRICITY":0.00019962,"INCLINATION":87.9193,"RA_OF_ASC_NODE":300.6487,"ARG_OF_PERICENTER":106.8324,"MEAN_ANOMALY":253.3028,"EPHEMERIS_TYPE":0,"NORAD_CAT_ID":49302,"ELEMENT_SET_NO":999,"REV_AT_EPOCH":22931,"BSTAR":-0.000038547925,"MEAN_MOTION_DOT":-2e-8,"MEAN_MOTION_DDOT":0},{"OBJECT_NAME":"ONEWEB-0377","OBJECT_ID":"2021-090AA","EPOCH":"2026-07-08T18:04:31.608768","CLASSIFICATION_TYPE":"U","MEAN_MOTION":13.20772953,"ECCENTRICITY":0.00019941,"INCLINATION":87.9191,"RA_OF_ASC_NODE":270.1388,"ARG_OF_PERICENTER":94.6777,"MEAN_ANOMALY":265.4584,"EPHEMERIS_TYPE":0,"NORAD_CAT_ID":49303,"ELEMENT_SET_NO":999,"REV_AT_EPOCH":23336,"BSTAR":-0.00012992541,"MEAN_MOTION_DOT":-4e-7,"MEAN_MOTION_DDOT":0},{"OBJECT_NAME":"ONEWEB-0378","OBJECT_ID":"2021-090AB","EPOCH":"2026-07-08T18:33:37.620576","CLASSIFICATION_TYPE":"U","MEAN_MOTION":13.20771733,"ECCENTRICITY":0.00019368,"INCLINATION":87.9186,"RA_OF_ASC_NODE":270.1386,"ARG_OF_PERICENTER":98.4411,"MEAN_ANOMALY":261.6942,"EPHEMERIS_TYPE":0,"NORAD_CAT_ID":49304,"ELEMENT_SET_NO":999,"REV_AT_EPOCH":23263,"BSTAR":0.000030017517,"MEAN_MOTION_DOT":2.5e-7,"MEAN_MOTION_DDOT":0},{"OBJECT_NAME":"ONEWEB-0379","OBJECT_ID":"2021-090AC","EPOCH":"2026-07-08T19:22:51.613248","CLASSIFICATION_TYPE":"U","MEAN_MOTION":13.14502024,"ECCENTRICITY":0.00018744,"INCLINATION":87.8977,"RA_OF_ASC_NODE":285.3998,"ARG_OF_PERICENTER":102.1012,"MEAN_ANOMALY":258.0328,"EPHEMERIS_TYPE":0,"NORAD_CAT_ID":49305,"ELEMENT_SET_NO":999,"REV_AT_EPOCH":23040,"BSTAR":0.00030749105,"MEAN_MOTION_DOT":0.00000127,"MEAN_MOTION_DDOT":0},{"OBJECT_NAME":"ONEWEB-0380","OBJECT_ID":"2021-090AD","EPOCH":"2026-07-08T20:50:58.730784","CLASSIFICATION_TYPE":"U","MEAN_MOTION":13.19726532,"ECCENTRICITY":0.00020053,"INCLINATION":87.9183,"RA_OF_ASC_NODE":300.6535,"ARG_OF_PERICENTER":95.2146,"MEAN_ANOMALY":264.9216,"EPHEMERIS_TYPE":0,"NORAD_CAT_ID":49306,"ELEMENT_SET_NO":999,"REV_AT_EPOCH":22928,"BSTAR":0.0001303052,"MEAN_MOTION_DOT":6.5e-7,"MEAN_MOTION_DDOT":0},{"OBJECT_NAME":"ONEWEB-0381","OBJECT_ID":"2021-090AE","EPOCH":"2026-07-08T17:59:27.490272","CLASSIFICATION_TYPE":"U","MEAN_MOTION":13.20773046,"ECCENTRICITY":0.00018324,"INCLINATION":87.9204,"RA_OF_ASC_NODE":270.1421,"ARG_OF_PERICENTER":91.1826,"MEAN_ANOMALY":268.9517,"EPHEMERIS_TYPE":0,"NORAD_CAT_ID":49307,"ELEMENT_SET_NO":999,"REV_AT_EPOCH":23267,"BSTAR":-0.000069572962,"MEAN_MOTION_DOT":-1.5e-7,"MEAN_MOTION_DDOT":0},{"OBJECT_NAME":"ONEWEB-0382","OBJECT_ID":"2021-090AF","EPOCH":"2026-07-08T17:40:05.425824","CLASSIFICATION_TYPE":"U","MEAN_MOTION":13.2077181,"ECCENTRICITY":0.00017938,"INCLINATION":87.9185,"RA_OF_ASC_NODE":270.1412,"ARG_OF_PERICENTER":96.1838,"MEAN_ANOMALY":263.9499,"EPHEMERIS_TYPE":0,"NORAD_CAT_ID":49308,"ELEMENT_SET_NO":999,"REV_AT_EPOCH":23266,"BSTAR":0.00010111695,"MEAN_MOTION_DOT":5.4e-7,"MEAN_MOTION_DDOT":0},{"OBJECT_NAME":"ONEWEB-0383","OBJECT_ID":"2021-090AG","EPOCH":"2026-07-08T19:13:43.647168","CLASSIFICATION_TYPE":"U","MEAN_MOTION":13.14502369,"ECCENTRICITY":0.00016528,"INCLINATION":87.8994,"RA_OF_ASC_NODE":285.3909,"ARG_OF_PERICENTER":120.9868,"MEAN_ANOMALY":239.1424,"EPHEMERIS_TYPE":0,"NORAD_CAT_ID":49309,"ELEMENT_SET_NO":999,"REV_AT_EPOCH":23043,"BSTAR":0.00057627522,"MEAN_MOTION_DOT":0.00000226,"MEAN_MOTION_DDOT":0},{"OBJECT_NAME":"ONEWEB-0384","OBJECT_ID":"2021-090AH","EPOCH":"2026-07-08T17:22:45.155136","CLASSIFICATION_TYPE":"U","MEAN_MOTION":13.20813758,"ECCENTRICITY":0.00016202,"INCLINATION":87.9195,"RA_OF_ASC_NODE":270.1868,"ARG_OF_PERICENTER":95.2368,"MEAN_ANOMALY":264.8951,"EPHEMERIS_TYPE":0,"NORAD_CAT_ID":49310,"ELEMENT_SET_NO":999,"REV_AT_EPOCH":23267,"BSTAR":-0.00000778854,"MEAN_MOTION_DOT":1e-7,"MEAN_MOTION_DDOT":0},{"OBJECT_NAME":"ONEWEB-0385","OBJECT_ID":"2021-090AJ","EPOCH":"2026-07-08T17:30:21.701376","CLASSIFICATION_TYPE":"U","MEAN_MOTION":13.20770302,"ECCENTRICITY":0.00019358,"INCLINATION":87.9191,"RA_OF_ASC_NODE":270.1474,"ARG_OF_PERICENTER":95.3825,"MEAN_ANOMALY":264.7529,"EPHEMERIS_TYPE":0,"NORAD_CAT_ID":49311,"ELEMENT_SET_NO":999,"REV_AT_EPOCH":23264,"BSTAR":-0.00048062289,"MEAN_MOTION_DOT":-0.00000182,"MEAN_MOTION_DDOT":0},{"OBJECT_NAME":"ONEWEB-0386","OBJECT_ID":"2021-090AK","EPOCH":"2026-07-08T12:27:20.889792","CLASSIFICATION_TYPE":"U","MEAN_MOTION":13.20773715,"ECCENTRICITY":0.00018386,"INCLINATION":87.9196,"RA_OF_ASC_NODE":270.181,"ARG_OF_PERICENTER":94.62,"MEAN_ANOMALY":265.5143,"EPHEMERIS_TYPE":0,"NORAD_CAT_ID":49312,"ELEMENT_SET_NO":999,"REV_AT_EPOCH":23263,"BSTAR":0.00016493686,"MEAN_MOTION_DOT":8e-7,"MEAN_MOTION_DDOT":0}]}
